ONEWEB-0156             
1 48052U 21025L   24086.60806021  .00000147  00000+0  36644-3 0  9999
2 48052  87.8914 121.9768 0002074  96.0572 264.0794 13.13470027146904
ONEWEB-0161             
1 48053U 21025M   24086.58107310 -.00000254  00000+0 -73118-3 0  9990
2 48053  87.8917 121.9873 0001988 102.6021 257.5331 13.13470236146839
ONEWEB-0158             
1 48054U 21025N   24086.61916700  .00000374  00000+0  98976-3 0  9996
2 48054  87.8914 121.9726 0002049  91.0443 269.0921 13.13471043146966
ONEWEB-0157             
1 48055U 21025P   24086.56679077 -.00000003  00000+0 -44511-4 0  9992
2 48055  87.8914 121.9991 0002195  99.9015 260.2362 13.13469612146898
ONEWEB-0162             
1 48056U 21025Q   24086.60646665  .00000069  00000+0  15485-3 0  9992
2 48056  87.8912 121.9880 0002095  95.4187 264.7181 13.13470917146870
ONEWEB-0155             
1 48057U 21025R   24086.55092738  .00000333  00000+0  87722-3 0  9990
2 48057  87.8915 122.0082 0001977  95.9227 264.2127 13.13469973147009
ONEWEB-0149             
1 48058U 21025S   24086.57154243 -.00000099  00000+0 -30587-3 0  9991
2 48058  87.8913 122.0009 0002265  95.0530 265.0858 13.13467854146810
ONEWEB-0148             
1 48059U 21025T   24086.61282329  .00000248  00000+0  64292-3 0  9998
2 48059  87.8916 121.9997 0002660 100.4715 259.6714 13.13469513146941
